OBJECT_NAME,OBJECT_ID,EPOCH,MEAN_MOTION,ECCENTRICITY,INCLINATION,RA_OF_ASC_NODE,ARG_OF_PERICENTER,MEAN_ANOMALY,EPHEMERIS_TYPE,CLASSIFICATION_TYPE,NORAD_CAT_ID,ELEMENT_SET_NO,REV_AT_EPOCH,BSTAR,MEAN_MOTION_DOT,MEAN_MOTION_DDOT
SAUDISAT 2,2004-025F,2026-06-27T22:48:45.979488,14.56689610,.00234337,98.5509,179.2107,263.4420,96.4110,0,U,28371,999,16731,.64674665E-4,.24E-5,0
COSMOS 2407,2004-028A,2026-06-27T23:03:01.871712,13.76335494,.00382023,82.9603,66.8551,220.7920,149.7648,0,U,28380,999,10136,.41529466E-4,.56E-6,0
COSMOS 2414,2005-002A,2026-06-27T20:17:53.714112,13.87927038,.00388742,82.9492,35.5830,300.1304,59.6008,0,U,28521,999,8529,.3126451E-4,.53E-6,0
INMARSAT 4-F1,2005-009A,2026-06-27T20:11:44.727360,1.00272260,.00029695,5.1816,42.7739,54.3583,299.8641,0,U,28628,999,7777,0,.4E-6,0
SJ-7,2005-024A,2026-06-27T19:26:00.249504,15.21698619,.00151885,97.7279,209.1993,1.9415,358.1876,0,U,28737,999,14964,.34675781E-3,.7799E-4,0
CUBESAT XI-V,2005-043F,2026-06-27T09:22:31.947456,14.72657931,.00143504,98.2993,334.2271,168.3542,191.8000,0,U,28895,999,10325,.23760396E-3,.1463E-4,0
HINODE (SOLAR-B),2006-041A,2026-06-27T12:59:34.881216,14.68636112,.00159939,98.0544,194.5413,253.9024,106.0421,0,U,29479,999,5639,.12500209E-3,.679E-5,0
SHIJIAN-6 02B (SJ-6 02B),2006-046B,2026-06-27T22:38:06.037152,15.01402075,.00152161,97.7159,207.9354,30.2564,329.9536,0,U,29506,999,7235,.9916478E-4,.1221E-4,0
DMSP 5D-3 F17 (USA 191),2006-050A,2026-06-27T23:43:28.114176,14.14994277,.00107252,98.7378,185.3376,31.1099,329.0708,0,U,29522,999,1395,.4654369E-4,.47E-6,0
LAPAN-TUBSAT,2007-001A,2026-06-27T23:03:56.340000,14.85962448,.00128622,98.1342,178.4278,144.9354,215.2710,0,U,29709,999,5275,.13220763E-3,.1098E-4,0
HAIYANG-1B,2007-010A,2026-06-27T21:54:00.940896,14.31029443,.00137364,98.3499,160.3420,164.3448,195.8163,0,U,31113,999,217,.49970674E-4,.9E-6,0
COSMO-SKYMED 2,2007-059A,2026-06-27T23:06:19.623168,14.82153674,.00013324,97.8887,2.4044,89.2963,270.8403,0,U,32376,999,360,.57207823E-4,.403E-5,0
CARTOSAT-2A,2008-021A,2026-06-27T22:29:25.344096,14.79252941,.00133433,97.7635,227.2786,77.7095,282.5610,0,U,32783,999,98039,.57699969E-4,.379E-5,0
CUTE-1.7+APD II (CO-65),2008-021C,2026-06-27T22:06:35.656128,15.09550491,.00086557,97.8271,160.5636,5.1197,355.0118,0,U,32785,999,98681,.29155108E-3,.4615E-4,0
SEEDS II (CO-66),2008-021J,2026-06-27T23:19:01.119072,15.33110926,.00007456,97.7514,177.3863,205.3890,154.7314,0,U,32791,999,98894,.55169448E-3,.17585E-3,0
YUBILEINY (RS30),2008-025A,2026-06-27T21:10:49.885248,12.43179960,.0018538,82.5044,348.7860,289.2394,70.6680,0,U,32953,999,82102,-.68248527E-4,0,0
FENGYUN 3A,2008-026A,2026-06-27T19:57:04.959360,14.19573281,.00098861,98.6885,119.4655,96.3169,263.9134,0,U,32958,999,93691,.47627569E-4,.57E-6,0
HUANJING 1A (HJ-1A),2008-041A,2026-06-27T22:54:42.612768,14.84009074,.00205649,97.6681,164.3764,101.6856,258.6668,0,U,33320,999,96000,.93478178E-4,.73E-5,0
HUANJING 1B (HJ-1B),2008-041B,2026-06-27T22:17:14.987616,14.83335436,.00370734,97.6517,167.4905,145.9381,214.4224,0,U,33321,999,96000,.15643459E-3,.1245E-4,0
SHIJIAN-6 03A (SJ-6 03A),2008-053A,2026-06-27T22:20:27.950784,15.17264030,.00104789,97.8411,212.6249,344.0367,16.0533,0,U,33408,999,96459,.22400039E-3,.4392E-4,0
SHIJIAN-6 03B (SJ-6 03B),2008-053B,2026-06-27T22:36:32.879808,15.04332367,.00195463,97.8561,199.0106,8.5334,351.6220,0,U,33409,999,96436,.14957826E-3,.2028E-4,0
