SAUDISAT 2              
1 28371U 04025F   26178.95053217  .00000240  00000+0  64675-4 0  9995
2 28371  98.5509 179.2107 0023433 263.4420  96.4110 14.56689610167317
COSMOS 2407             
1 28380U 04028A   26178.96043833  .00000056  00000+0  41529-4 0  9990
2 28380  82.9603  66.8551 0038202 220.7920 149.7648 13.76335494101364
COSMOS 2414             
1 28521U 05002A   26178.84576058  .00000053  00000+0  31265-4 0  9990
2 28521  82.9492  35.5830 0038874 300.1304  59.6008 13.87927038 85299
INMARSAT 4-F1           
1 28628U 05009A   26178.84148990  .00000040  00000+0  00000+0 0  9999
2 28628   5.1816  42.7739 0002969  54.3583 299.8641  1.00272260 77772
SJ-7                    
1 28737U 05024A   26178.80972511  .00007799  00000+0  34676-3 0  9995
2 28737  97.7279 209.1993 0015188   1.9415 358.1876 15.21698619149646
CUBESAT XI-V            
1 28895U 05043F   26178.39064754  .00001463  00000+0  23760-3 0  9990
2 28895  98.2993 334.2271 0014350 168.3542 191.8000 14.72657931103253
HINODE (SOLAR-B)        
1 29479U 06041A   26178.54137594  .00000679  00000+0  12500-3 0  9996
2 29479  98.0544 194.5413 0015993 253.9024 106.0421 14.68636112 56397
SHIJIAN-6 02B (SJ-6 02B)
1 29506U 06046B   26178.94312543  .00001221  00000+0  99165-4 0  9992
2 29506  97.7159 207.9354 0015216  30.2564 329.9536 15.01402075 72356
DMSP 5D-3 F17 (USA 191) 
1 29522U 06050A   26178.98851984  .00000047  00000+0  46544-4 0  9994
2 29522  98.7378 185.3376 0010725  31.1099 329.0708 14.14994277 13950
LAPAN-TUBSAT            
1 29709U 07001A   26178.96106875  .00001098  00000+0  13221-3 0  9990
2 29709  98.1342 178.4278 0012862 144.9354 215.2710 14.85962448 52750
HAIYANG-1B              
1 31113U 07010A   26178.91251089  .00000090  00000+0  49971-4 0  9998
2 31113  98.3499 160.3420 0013736 164.3448 195.8163 14.31029443  2173
COSMO-SKYMED 2          
1 32376U 07059A   26178.96272712  .00000403  00000+0  57208-4 0  9994
2 32376  97.8887   2.4044 0001332  89.2963 270.8403 14.82153674  3604
CARTOSAT-2A             
1 32783U 08021A   26178.93709889  .00000379  00000+0  57700-4 0  9992
2 32783  97.7635 227.2786 0013343  77.7095 282.5610 14.79252941980392
CUTE-1.7+APD II (CO-65) 
1 32785U 08021C   26178.92124602  .00004615  00000+0  29155-3 0  9996
2 32785  97.8271 160.5636 0008655   5.1197 355.0118 15.09550491986819
SEEDS II (CO-66)        
1 32791U 08021J   26178.97154073  .00017585  00000+0  55169-3 0  9997
2 32791  97.7514 177.3863 0000745 205.3890 154.7314 15.33110926988949
YUBILEINY (RS30)        
1 32953U 08025A   26178.88252182  .00000000  00000+0 -68249-4 0  9990
2 32953  82.5044 348.7860 0018538 289.2394  70.6680 12.43179960821027
FENGYUN 3A              
1 32958U 08026A   26178.83130740  .00000057  00000+0  47628-4 0  9995
2 32958  98.6885 119.4655 0009886  96.3169 263.9134 14.19573281936916
HUANJING 1A (HJ-1A)     
1 33320U 08041A   26178.95465987  .00000730  00000+0  93478-4 0  9995
2 33320  97.6681 164.3764 0020564 101.6856 258.6668 14.84009074960008
HUANJING 1B (HJ-1B)     
1 33321U 08041B   26178.92864569  .00001245  00000+0  15643-3 0  9991
2 33321  97.6517 167.4905 0037073 145.9381 214.4224 14.83335436960006
SHIJIAN-6 03A (SJ-6 03A)
1 33408U 08053A   26178.93087906  .00004392  00000+0  22400-3 0  9998
2 33408  97.8411 212.6249 0010478 344.0367  16.0533 15.17264030964593
SHIJIAN-6 03B (SJ-6 03B)
1 33409U 08053B   26178.94204722  .00002028  00000+0  14958-3 0  9990
2 33409  97.8561 199.0106 0019546   8.5334 351.6220 15.04332367964362
